{
  "norad_id": 59469,
  "name": "STARLINK-31381",
  "history": [
    {
      "epoch": "2026-03-28T20:40:33.585312Z",
      "apogee_km": 483.824876909227,
      "perigee_km": 482.2632720966694,
      "latitude_deg": 3.6671065725054137e-06,
      "longitude_deg": 146.47199621929443,
      "height_km": 482.73902463842,
      "semi_major_axis_km": 6861.181074502948,
      "eccentricity": 0.0001138,
      "inclination_deg": 43.0033,
      "raan_deg": 282.8878,
      "arg_perigee_deg": 276.0212,
      "mean_anomaly_deg": 84.051,
      "mean_motion_rev_day": 15.27581677
    },
    {
      "epoch": "2026-03-30T05:37:49.674144Z",
      "apogee_km": 483.74393493276693,
      "perigee_km": 482.05378735873273,
      "latitude_deg": 7.465388826564748e-06,
      "longitude_deg": 3.0468722387578904,
      "height_km": 482.34246011753993,
      "semi_major_axis_km": 6861.03586114575,
      "eccentricity": 0.00012317,
      "inclination_deg": 43.003,
      "raan_deg": 275.1331,
      "arg_perigee_deg": 293.2252,
      "mean_anomaly_deg": 66.847,
      "mean_motion_rev_day": 15.27630174
    },
    {
      "epoch": "2026-03-30T11:54:28.481472Z",
      "apogee_km": 483.8781986955064,
      "perigee_km": 482.2492124239934,
      "latitude_deg": 3.676727545314696e-05,
      "longitude_deg": -92.84899897663213,
      "height_km": 482.70408008046377,
      "semi_major_axis_km": 6861.20070555975,
      "eccentricity": 0.00011871,
      "inclination_deg": 43.0008,
      "raan_deg": 273.6567,
      "arg_perigee_deg": 279.629,
      "mean_anomaly_deg": 80.4428,
      "mean_motion_rev_day": 15.27575121
    },
    {
      "epoch": "2026-03-30T19:45:16.062912Z",
      "apogee_km": 483.79717680095837,
      "perigee_km": 482.3564591234626,
      "latitude_deg": -3.04895737950653e-05,
      "longitude_deg": 147.28362730493072,
      "height_km": 482.8197193748608,
      "semi_major_axis_km": 6861.21381796221,
      "eccentricity": 0.00010499,
      "inclination_deg": 43.0023,
      "raan_deg": 271.8099,
      "arg_perigee_deg": 272.6867,
      "mean_anomaly_deg": 87.3864,
      "mean_motion_rev_day": 15.27570742
    },
    {
      "epoch": "2026-03-31T19:17:36.036384Z",
      "apogee_km": 483.67276916056835,
      "perigee_km": 482.31838159018935,
      "latitude_deg": -3.4374816667702674e-05,
      "longitude_deg": 147.69279418131708,
      "height_km": 482.8970151076598,
      "semi_major_axis_km": 6861.132575375379,
      "eccentricity": 9.87e-05,
      "inclination_deg": 43.0023,
      "raan_deg": 266.269,
      "arg_perigee_deg": 259.3746,
      "mean_anomaly_deg": 100.6994,
      "mean_motion_rev_day": 15.27597874
    },
    {
      "epoch": "2026-04-01T18:49:59.773440Z",
      "apogee_km": 483.9048508712949,
      "perigee_km": 482.35832093203226,
      "latitude_deg": 1.1830885303560451e-05,
      "longitude_deg": 148.08368984782246,
      "height_km": 483.62791176037126,
      "semi_major_axis_km": 6861.268585901663,
      "eccentricity": 0.0001127,
      "inclination_deg": 43.0021,
      "raan_deg": 260.7255,
      "arg_perigee_deg": 201.3135,
      "mean_anomaly_deg": 158.767,
      "mean_motion_rev_day": 15.27552452
    },
    {
      "epoch": "2026-04-02T19:56:26.351520Z",
      "apogee_km": 483.4971653047214,
      "perigee_km": 482.4858349638016,
      "latitude_deg": 5.112713786394926e-05,
      "longitude_deg": 124.53876702548335,
      "height_km": 482.7459827425864,
      "semi_major_axis_km": 6861.128500134261,
      "eccentricity": 7.37e-05,
      "inclination_deg": 43.002,
      "raan_deg": 254.8224,
      "arg_perigee_deg": 272.4774,
      "mean_anomaly_deg": 87.5994,
      "mean_motion_rev_day": 15.27599235
    }
  ]
}